SPACEBEENZ-17           
1 52397U 22047D   23016.77587345  .00039696  00000+0  18403-2 0  9999
2 52397  97.4358 102.6315 0007752 146.3644 213.8084 15.19926795 40678
SPACEBEENZ-18           
1 52398U 22047E   23016.77750519  .00038289  00000+0  17768-2 0  9995
2 52398  97.4360 102.6296 0007835 146.2737 213.8998 15.19901012 40673
SPACEBEE-140            
1 52399U 22047F   23016.77663083  .00033218  00000+0  15861-2 0  9994
2 52399  97.4362 102.4857 0008035 146.6695 213.5047 15.18944139 40686
SPACEBEE-141            
1 52400U 22047G   23016.82822908  .00028840  00000+0  14072-2 0  9994
2 52400  97.4369 102.4194 0008378 146.0170 214.1602 15.18219932 40660
SPACEBEE-142            
1 52401U 22047H   23017.17953101  .00029362  00000+0  14407-2 0  9996
2 52401  97.4360 102.7064 0008196 145.0018 215.1756 15.18022220 40718
SPACEBEENZ-20           
1 52402U 22047J   23017.18424760  .00038279  00000+0  17780-2 0  9996
2 52402  97.4348 102.9807 0008483 148.7943 211.3797 15.19864723 40736
SPACEBEENZ-22           
1 52403U 22047K   23016.74182113  .00036483  00000+0  17110-2 0  9993
2 52403  97.4352 102.5038 0008690 149.8595 210.3142 15.19540557 40660
SPACEBEENZ-19           
1 52404U 22047L   23017.17920296  .00039660  00000+0  18376-2 0  9999
2 52404  97.4355 102.9905 0008459 149.0529 211.1206 15.19941339 40734
SPACEBEENZ-21           
1 52405U 22047M   23016.66206337  .00038658  00000+0  18015-2 0  9992
2 52405  97.4350 102.4582 0008467 151.1012 209.0694 15.19748490 40657
SPACEBEE-148            
1 52406U 22047N   23016.72534451  .00033269  00000+0  15934-2 0  9991
2 52406  97.4355 102.3795 0008634 150.7548 209.4171 15.18833849 40659
SPACEBEE-149            
1 52407U 22047P   23017.18101445  .00030252  00000+0  14749-2 0  9998
2 52407  97.4355 102.6815 0008782 148.6475 211.5284 15.18234888 40719
SPACEBEE-153            
1 52408U 22047Q   23017.00839263  .00029921  00000+0  14482-2 0  9991
2 52408  97.4389 102.7119 0008716 160.9882 199.1679 15.18490590 40691
SPACEBEE-150            
1 52409U 22047R   23017.17941202  .00029613  00000+0  14500-2 0  9996
2 52409  97.4354 102.6919 0008801 149.9603 210.2137 15.18088221 40715
SPACEBEE-144            
1 52410U 22047S   23017.04615908  .00028603  00000+0  14023-2 0  9993
2 52410  97.4363 102.5868 0008168 148.8733 211.2986 15.18056426 40699
SPACEBEE-145            
1 52411U 22047T   23016.98821072  .00029562  00000+0  14495-2 0  9995
2 52411  97.4358 102.5071 0008073 148.4764 211.6955 15.18045701 40688
SPACEBEE-146            
1 52412U 22047U   23017.00958450  .00029573  00000+0  14511-2 0  9992
2 52412  97.4359 102.4674 0008173 147.7296 212.4440 15.18019485 40689
SPACEBEE-151            
1 52413U 22047V   23017.18984577  .00025180  00000+0  12376-2 0  9998
2 52413  97.4353 102.6749 0008675 151.3771 208.7941 15.17992823 40718
SPACEBEE-152            
1 52414U 22047W   23017.46996250  .00024022  00000+0  11848-2 0  9998
2 52414  97.4353 102.9049 0008782 149.8217 210.3524 15.17880170 40752
SPACEBEE-147            
1 52415U 22047X   23016.67236226  .00026532  00000+0  13084-2 0  9993
2 52415  97.4364 102.1696 0008107 151.8734 208.2939 15.17869121 40639
SPACEBEE-155            
1 52416U 22047Y   23017.18838164  .00024580  00000+0  12319-2 0  9991
2 52416  97.4340 102.4998 0009139 155.6593 204.5074 15.17311060 40704
SPACEBEE-154            
1 52417U 22047Z   23016.81967989  .00027814  00000+0  13741-2 0  9992
2 52417  97.4357 102.2514 0008753 152.4161 207.7539 15.17790362 40653
